FLOCK 4S-43             
1 47687U 21006EN  23060.14335959  .00017812  00000+0  73167-3 0  9996
2 47687  97.4057 119.5880 0005917 104.9986 255.1907 15.24238329117183
FLOCK 4S-45             
1 47688U 21006EP  23060.09979508  .00035073  00000+0  14630-2 0  9993
2 47688  97.4073 119.4774 0009976  95.9140 264.3234 15.23548296117162
FLOCK 4S-41             
1 47698U 21006ER  23060.12015980  .00042933  00000+0  17825-2 0  9995
2 47698  97.4129 120.2270 0009419 105.1116 255.1164 15.23663294116216
FLOCK 4X-8              
1 50992U 22002J   23060.15431740  .00024420  00000+0  10518-2 0  9995
2 50992  97.4537 129.1063 0009122 256.5397 103.4823 15.22546833 62362
FLOCK 4X-44             
1 50994U 22002L   23060.09479232  .00037631  00000+0  16200-2 0  9990
2 50994  97.4561 129.1449 0008980 255.4612 104.5628 15.22471385 62351
FLOCK 4X-2              
1 50996U 22002N   23059.76506577  .00017561  00000+0  75873-3 0  9999
2 50996  97.4551 128.7723 0008930 258.1465 101.8770 15.22512593 62303
FLOCK 4X-20             
1 50997U 22002P   23059.76175684  .00027677  00000+0  11959-2 0  9994
2 50997  97.4546 128.7658 0008898 259.3717 100.6517 15.22413632 62301
FLOCK 4X-30             
1 51000U 22002S   23060.15719316  .00019368  00000+0  83867-3 0  9997
2 51000  97.4502 128.8648 0009164 247.4591 112.5676 15.22414333 62367
FLOCK 4X-22             
1 51003U 22002V   23059.75861014  .00048357  00000+0  20766-2 0  9995
2 51003  97.4533 128.6850 0009093 261.0334  98.9873 15.22491528 62306
FLOCK 4X-5              
1 51004U 22002W   23060.15090555  .00018269  00000+0  79045-3 0  9990
2 51004  97.4505 128.9304 0009612 248.4078 111.6134 15.22449832 62364
FLOCK 4X-41             
1 51005U 22002X   23059.75479200  .00037802  00000+0  16288-2 0  9996
2 51005  97.4489 128.4516 0008906 248.0942 111.9348 15.22440063 62308
FLOCK 4X-3              
1 51006U 22002Y   23060.14798497  .00015664  00000+0  67958-3 0  9997
2 51006  97.4548 129.1604 0009632 253.9536 106.0639 15.22391790 62368
FLOCK 4X-18             
1 51007U 22002Z   23060.14630043  .00014387  00000+0  62361-3 0  9994
2 51007  97.4515 128.9565 0009567 249.7006 110.3203 15.22441567 62361
FLOCK 4X-37             
1 51009U 22002AB  23060.14479281  .00035037  00000+0  15066-2 0  9995
2 51009  97.4583 129.2190 0009604 250.0413 110.3589 15.22520916 62368
FLOCK 4X-15             
1 51010U 22002AC  23060.13886071  .00016670  00000+0  72094-3 0  9992
2 51010  97.4563 129.2397 0009892 251.7891 108.2269 15.22483171 62366
FLOCK 4X-29             
1 51011U 22002AD  23060.14323900  .00002245  00000+0  10000-3 0  9993
2 51011  97.4493 128.9264 0008571 222.3771 137.8581 15.22458839 62360
FLOCK 4X-27             
1 51012U 22002AE  23059.94483002  .00023567  00000+0  10177-2 0  9994
2 51012  97.4541 128.9473 0010183 258.4862 101.5231 15.22457000 62336
FLOCK 4X-12             
1 51015U 22002AH  23060.13537730  .00015981  00000+0  69018-3 0  9998
2 51015  97.4549 129.1634 0010312 251.8633 108.1480 15.22535963 62363
FLOCK 4X-25             
1 51016U 22002AJ  23060.13998787  .00015584  00000+0  67596-3 0  9990
2 51016  97.4528 129.0694 0009830 258.6946 101.3186 15.22397311 62362
FLOCK 4X-1              
1 51017U 22002AK  23060.13376670  .00046721  00000+0  20029-2 0  9998
2 51017  97.4523 128.9764 0010676 252.7398 107.1324 15.22544980 62364
FLOCK 4X-42             
1 51018U 22002AL  23060.13663509  .00018231  00000+0  78743-3 0  9991
2 51018  97.4494 128.8882 0009976 246.3614 113.6575 15.22505931 62366
FLOCK 4X-16             
1 51020U 22002AN  23060.13147142  .00016829  00000+0  72708-3 0  9990
2 51020  97.4504 128.9157 0010223 246.9417 113.0741 15.22511307 62364
FLOCK 4X-38             
1 51023U 22002AR  23059.93367616  .00021654  00000+0  93291-3 0  9991
2 51023  97.4546 128.9993 0010156 253.9445 106.0674 15.22554097 62332
FLOCK 4X-32             
1 51024U 22002AS  23060.19479486  .00017912  00000+0  77250-3 0  9990
2 51024  97.4562 129.2867 0010209 249.6288 110.3852 15.22558356 62373
FLOCK 4X-26             
1 51026U 22002AU  23059.92797137  .00030754  00000+0  13143-2 0  9996
2 51026  97.4519 128.8018 0009940 253.4499 106.5646 15.22757481 62331
FLOCK 4X-43             
1 51027U 22002AV  23060.25791255  .00017969  00000+0  77405-3 0  9995
2 51027  97.4512 129.1017 0009855 247.0885 112.9312 15.22601882 62380
FLOCK 4X-13             
1 51028U 22002AW  23059.73093512  .00043530  00000+0  18682-2 0  9992
2 51028  97.4520 128.5744 0010106 247.4556 112.5612 15.22530127 62304
FLOCK 4X-39             
1 51029U 22002AX  23060.18744505  .00017527  00000+0  75231-3 0  9990
2 51029  97.4513 129.0394 0009760 244.1472 115.8758 15.22729285 62378
FLOCK 4X-17             
1 51035U 22002BD  23060.18553320  .00032133  00000+0  13837-2 0  9993
2 51035  97.4538 129.0872 0006394 254.8400 105.2129 15.22515311 62369
FLOCK 4X-10             
1 51037U 22002BF  23060.16256285  .00031201  00000+0  13475-2 0  9996
2 51037  97.4555 129.1983 0008860 254.1565 105.8695 15.22404847 62353
FLOCK 4X-36             
1 51039U 22002BH  23060.16581488  .00016767  00000+0  72754-3 0  9990
2 51039  97.4556 129.1807 0007814 253.8710 106.1666 15.22384860 62362
FLOCK 4X-21             
1 51040U 22002BJ  23060.17569110  .00020690  00000+0  89230-3 0  9998
2 51040  97.4534 129.0306 0006646 254.9558 105.0943 15.22555910 62369
FLOCK 4X-31             
1 51041U 22002BK  23060.17694555  .00014513  00000+0  62454-3 0  9997
2 51041  97.4499 128.8572 0006931 247.9250 112.1251 15.22705595 62367
FLOCK 4X-34             
1 51042U 22002BL  23060.17726562  .00014587  00000+0  63055-3 0  9991
2 51042  97.4559 129.1620 0006915 256.9632 103.0832 15.22551087 62368
FLOCK 4X-6              
1 51043U 22002BM  23060.18009128  .00016594  00000+0  71740-3 0  9995
2 51043  97.4544 129.0660 0006848 252.4700 107.5788 15.22517882 62362
FLOCK 4X-28             
1 51045U 22002BP  23060.43644301  .00002388  00000+0  10598-3 0  9993
2 51045  97.4510 129.1709 0007098 242.3217 117.7300 15.22529768 62405
FLOCK 4X-19             
1 51046U 22002BQ  23060.16916006  .00058879  00000+0  24754-2 0  9992
2 51046  97.4543 129.1183 0008539 269.9451  90.0807 15.23159252 62362
FLOCK 4X-9              
1 51047U 22002BR  23060.17227417  .00036300  00000+0  15641-2 0  9995
2 51047  97.4556 129.1505 0007253 260.3618  99.6799 15.22461650 62369
FLOCK 4X-35             
1 51048U 22002BS  23060.43054236  .00017691  00000+0  76568-3 0  9990
2 51048  97.4454 129.0569 0006765 228.3045 131.7613 15.22467337 62407
FLOCK 4X-11             
1 51049U 22002BT  23060.18175241  .00014353  00000+0  62140-3 0  9996
2 51049  97.4496 128.8398 0006588 253.5725 106.4787 15.22502837 62360
FLOCK 4X-40             
1 51052U 22002BW  23060.18145823  .00020543  00000+0  88150-3 0  9990
2 51052  97.4507 128.8339 0006880 250.8759 109.1732 15.22727435 62367
FLOCK 4X-24             
1 51056U 22002CA  23060.18637021  .00017176  00000+0  74222-3 0  9993
2 51056  97.4504 128.8720 0006516 247.0524 113.0025 15.22528472 62365
FLOCK 4X-4              
1 51064U 22002CJ  23060.42621367  .00023201  00000+0  10056-2 0  9995
2 51064  97.4513 129.1708 0007351 244.0818 115.9661 15.22357185 62408
FLOCK 4X-7              
1 51065U 22002CK  23060.17008704  .00014835  00000+0  64399-3 0  9995
2 51065  97.4534 129.0678 0007453 254.5289 105.5124 15.22399866 62364
FLOCK 4X-14             
1 51066U 22002CL  23060.16732187  .00015656  00000+0  67915-3 0  9993
2 51066  97.4550 129.2433 0007999 255.9144 104.1203 15.22408193 62361
FLOCK 4Y-24             
1 55020U 23001M   23060.41243975  .00010520  00000+0  58242-3 0  9995
2 55020  97.4932 121.5695 0011463  33.1278 327.0669 15.13960997  8748
FLOCK 4Y-32             
1 55021U 23001N   23060.14893169  .00010121  00000+0  55942-3 0  9993
2 55021  97.4930 121.3050 0011504  30.0362 330.1527 15.14029769  8704
FLOCK 4Y-22             
1 55022U 23001P   23060.14561807  .00008819  00000+0  48778-3 0  9995
2 55022  97.4936 121.3127 0011390  26.1485 334.0319 15.14049028  8703
FLOCK 4Y-18             
1 55023U 23001Q   23059.88341442  .00038390  00000+0  20990-2 0  9998
2 55023  97.4959 121.0731 0011532  32.1777 328.0156 15.14111761  8667
FLOCK 4Y-14             
1 55024U 23001R   23059.87950985  .00025791  00000+0  14099-2 0  9990
2 55024  97.4948 121.0707 0011850  35.7170 324.4852 15.14205798  8665
FLOCK 4Y-30             
1 55025U 23001S   23060.14202384  .00009782  00000+0  53844-3 0  9990
2 55025  97.4963 121.3417 0011864  32.9866 327.2103 15.14185031  8702
FLOCK 4Y-19             
1 55026U 23001T   23059.88049209  .00010247  00000+0  56554-3 0  9994
2 55026  97.4928 121.0464 0012008  26.9233 333.2620 15.14076299  8666
FLOCK 4Y-25             
1 55027U 23001U   23060.14226628  .00012464  00000+0  68241-3 0  9997
2 55027  97.4916 121.3068 0011775  31.4462 328.7471 15.14312607  8706
FLOCK 4Y-5              
1 55028U 23001V   23060.13906673  .00009303  00000+0  50976-3 0  9996
2 55028  97.4935 121.3211 0012232  24.2011 335.9793 15.14356995  8702
FLOCK 4Y-10             
1 55029U 23001W   23060.14077773  .00009662  00000+0  52900-3 0  9995
2 55029  97.4961 121.3428 0011766  29.0587 331.1297 15.14378741  8704
FLOCK 4Y-29             
1 55030U 23001X   23060.13940526  .00009768  00000+0  53481-3 0  9993
2 55030  97.4920 121.3113 0011835  28.2678 331.9193 15.14376427  8703
FLOCK 4Y-17             
1 55031U 23001Y   23059.87826187  .00009506  00000+0  52453-3 0  9997
2 55031  97.4966 121.0844 0011945  33.1498 327.0479 15.14105556  8660
FLOCK 4Y-7              
1 55032U 23001Z   23059.73958779  .00038401  00000+0  20549-2 0  9992
2 55032  97.4929 120.9314 0012592  23.0419 337.1375 15.14866652  8646
FLOCK 4Y-28             
1 55033U 23001AA  23059.60836967  .00013174  00000+0  71509-3 0  9996
2 55033  97.4908 120.7860 0011885  29.3361 330.8536 15.14603857  8620
FLOCK 4Y-3              
1 55035U 23001AC  23060.12099845  .00029401  00000+0  15932-2 0  9990
2 55035  97.4927 121.3361 0015213  28.2884 331.9171 15.14450482  8703
